[{"OBJECT_NAME":"STARLINK-31412","OBJECT_ID":"2024-064N","EPOCH":"2026-03-09T22:25:53.365152","MEAN_MOTION":15.27575254,"ECCENTRICITY":9.531e-5,"INCLINATION":43.0041,"RA_OF_ASC_NODE":54.7488,"ARG_OF_PERICENTER":254.2755,"MEAN_ANOMALY":105.7991,"EPHEMERIS_TYPE":0,"CLASSIFICATION_TYPE":"U","NORAD_CAT_ID":59410,"ELEMENT_SET_NO":999,"REV_AT_EPOCH":10926,"BSTAR":8.75813e-7,"MEAN_MOTION_DOT":-2.38e-6,"MEAN_MOTION_DDOT":0},{"OBJECT_NAME":"OBJECT N","OBJECT_ID":"2019-093N","EPOCH":"2026-03-09T21:41:56.087232","MEAN_MOTION":15.29897693,"ECCENTRICITY":0.0006278,"INCLINATION":98.0505,"RA_OF_ASC_NODE":226.9456,"ARG_OF_PERICENTER":33.3806,"MEAN_ANOMALY":326.7828,"EPHEMERIS_TYPE":0,"CLASSIFICATION_TYPE":"U","NORAD_CAT_ID":44891,"ELEMENT_SET_NO":999,"REV_AT_EPOCH":33957,"BSTAR":0.0010567776,"MEAN_MOTION_DOT":0.00030617,"MEAN_MOTION_DDOT":0}]
